OBJECT_NAME,OBJECT_ID,EPOCH,MEAN_MOTION,ECCENTRICITY,INCLINATION,RA_OF_ASC_NODE,ARG_OF_PERICENTER,MEAN_ANOMALY,EPHEMERIS_TYPE,CLASSIFICATION_TYPE,NORAD_CAT_ID,ELEMENT_SET_NO,REV_AT_EPOCH,BSTAR,MEAN_MOTION_DOT,MEAN_MOTION_DDOT
INTELSAT 35E (IS-35E),2017-041A,2026-06-18T19:36:09.563040,1.00270860,.0001999,0.0196,11.5128,77.1269,77.9564,0,U,42818,999,3283,0,0,0
COSMOS 2520,2017-046A,2026-06-18T11:25:30.382176,1.00271321,.0001267,0.0475,93.6563,6.2150,23.1999,0,U,42907,999,3241,0,.131E-5,0
TDRS 13,2017-047A,2026-06-18T19:42:43.936704,1.00271704,.0014549,3.4522,2.7933,106.3818,82.1247,0,U,42915,999,3236,0,-.107E-5,0
QZS-3 (MICHIBIKI-3),2017-048A,2026-06-18T19:53:00.030048,1.00275328,.0001914,0.0665,166.6691,276.9139,248.7177,0,U,42917,999,3227,0,-.354E-5,0
AMAZONAS 5,2017-053A,2026-06-18T12:37:55.191072,1.00272137,.000201,0.0314,327.6735,65.7866,1.7797,0,U,42934,999,3205,0,-.289E-5,0
ASIASAT 9,2017-057A,2026-06-18T19:48:13.863744,1.00271694,.0002398,0.0138,102.7867,340.8284,242.6029,0,U,42942,999,3187,0,-.366E-5,0
INTELSAT 37E (IS-37E),2017-059A,2026-06-18T19:40:51.616704,1.00271090,.0002548,0.0180,16.2894,96.0416,71.9467,0,U,42950,999,3208,0,-.147E-5,0
BSAT-4A,2017-059B,2026-06-18T19:36:06.355008,1.00272043,.0004074,0.0342,348.8532,80.3780,241.6768,0,U,42951,999,3181,0,-.357E-5,0
QZS-4 (MICHIBIKI-4),2017-062A,2026-06-18T08:24:11.162016,1.00250086,.0745019,40.1070,343.4662,271.8091,274.2172,0,U,42965,999,3181,0,-.36E-5,0
SES-11 (ECHOSTAR 105),2017-063A,2026-06-18T15:50:47.416128,1.00270840,.0002748,0.0149,353.5311,79.1432,326.9657,0,U,42967,999,3173,0,-.95E-6,0
KOREASAT 5A,2017-067A,2026-06-18T19:37:07.756896,1.00270177,.0000662,0.0195,304.8735,130.1776,239.4250,0,U,42984,999,3154,0,-.364E-5,0
ALCOMSAT 1,2017-078A,2026-06-18T11:05:32.294976,1.00269166,.0002297,0.0288,266.2693,168.8948,333.1005,0,U,43039,999,3130,0,-.193E-5,0
SBIRS GEO-3 (USA 282),2018-009A,2026-06-18T19:00:20.497824,1.00272038,.000191,2.1857,12.2091,65.3899,315.1084,0,U,43162,999,3086,0,.121E-5,0
AL YAH 3,2018-012A,2026-06-18T14:32:13.265376,1.00269803,.0003947,1.5565,83.0917,2.0468,19.6294,0,U,43174,999,3086,0,-.163E-5,0
SES-14,2018-012B,2026-06-18T12:41:47.320224,1.00275741,.0000856,0.0195,29.8723,72.0057,307.8305,0,U,43175,999,703,0,-.285E-5,0
GOES 17,2018-022A,2026-06-18T19:20:26.070720,1.00269550,.0000491,0.9422,85.6810,27.7063,354.2380,0,U,43226,999,3044,0,-.189E-5,0
HISPASAT 30W-6,2018-023A,2026-06-18T11:04:09.928128,1.00269727,.0005738,0.0456,42.9949,27.2662,332.4700,0,U,43228,999,3041,0,-.223E-5,0
SUPERBIRD-B3,2018-033A,2026-06-18T18:49:29.040096,1.00271739,.0000992,0.0105,27.2965,55.9853,268.1133,0,U,43271,999,3007,0,-.99E-6,0
HYLAS 4,2018-033B,2026-06-18T11:03:10.024416,1.00280023,.0001294,0.0174,20.9775,86.0301,291.9719,0,U,43272,999,3007,0,-.239E-5,0
IRNSS-1I,2018-035A,2026-06-15T20:09:20.172384,1.00272046,.00178117,28.7520,74.2167,181.5598,5.5147,0,U,43286,999,3006,0,.62E-6,0
USA 283,2018-036A,2026-06-15T11:59:15.199008,1.00267801,.0000468,0.0182,1.8047,172.3670,43.5385,0,U,43339,999,2527,0,0,0
COSMOS 2526,2018-037A,2026-06-18T14:08:51.681984,1.00269106,.0000564,0.0289,34.2955,200.0654,12.7395,0,U,43432,999,2997,0,-.351E-5,0
APSTAR-6C,2018-041A,2026-06-17T20:26:58.911936,1.00268661,.0000917,0.0269,17.8003,325.0673,3.9650,0,U,43450,999,2981,0,-.324E-5,0
BANGABANDHUSAT-1,2018-044A,2026-06-18T19:45:03.299904,1.00269038,.0001705,0.0317,87.1337,358.1208,237.1473,0,U,43463,999,2972,0,-.369E-5,0
SES-12,2018-049A,2026-06-18T19:16:32.767392,1.00270958,.000072,0.0153,19.8048,268.6733,2.6933,0,U,43488,999,2943,0,-.276E-5,0
FENGYUN 2H,2018-050A,2026-06-18T20:08:40.366176,1.00269379,.0001952,3.0362,79.0537,138.1870,71.3920,0,U,43491,999,2945,0,-.137E-5,0
BEIDOU-2 IGSO-7,2018-057A,2026-06-17T22:02:12.630336,1.00251228,.01051574,55.1940,163.0508,238.0681,305.4943,0,U,43539,999,2913,0,-.4E-6,0
TELSTAR 19V,2018-059A,2026-06-18T10:54:40.837248,1.00274890,.0002571,0.0192,170.6171,297.8062,258.9345,0,U,43562,999,2915,0,-.286E-5,0
TELKOM 4 (MERAH PUTIH),2018-064A,2026-06-18T19:32:23.060256,1.00266997,.0001486,0.0163,0.6116,120.7343,186.7929,0,U,43587,999,2889,0,0,0
TELSTAR 18V,2018-069A,2026-06-18T18:42:37.198080,1.00270922,.0001763,0.0176,297.1686,146.0782,242.4129,0,U,43611,999,2865,0,-.3E-5,0
AZERSPACE 2 (IS-38),2018-074A,2026-06-18T19:58:48.025056,1.00272690,.0001501,0.0173,13.0602,88.7609,150.0486,0,U,43632,999,2846,0,.13E-5,0
HORIZONS-3E,2018-074B,2026-06-18T15:26:12.274368,1.00271097,.0000758,0.0047,132.2714,140.4157,34.7443,0,U,43633,999,2835,0,-.37E-6,0
